From: horizons@ssd.jpl.nasa.gov (Horizons Ephemeris System)
Subject: [Horizons] SMALL BODY #C(500@10)_T(185P/Petriew) (1/1)
Date: March 1, 2021 at 1:22:59 PM PST

Automated mail xmit by MAIL_REQUEST, PID= 2301 Mon Mar  1 13:22:59 2021
++++++++++++++++++++++++++++++++ (part 1 of 1)  +++++++++++++++++++++++++++++++
*******************************************************************************
JPL/HORIZONS                    185P/Petriew               2021-Mar-01 13:22:59
Rec #:90001090 (+COV) Soln.date: 2019-May-15_16:27:13    # obs: 735 (2007-2019)

IAU76/J2000 helio. ecliptic osc. elements (au, days, deg., period=Julian yrs):

 EPOCH=  2456473.5 ! 2013-Jun-30.0000000 (TDB)    RMSW= n.a.
  EC= .6993345995045035   QR= .9319757108506322   TP= 2456153.051370563
  OM= 214.0912549894404   W= 181.9391939260816    IN= 14.0071028125114
  A= 3.099710539738648    MA= 57.87363785087459   ADIST= 5.267445368626664
  PER= 5.4574519964547    N= .180601915           ANGMOM= .02164827
  DAN= 5.26044            DDN= .9322              L= 35.9728403
  B= -.4692836            MOID= .0617438          TP= 2012-Aug-13.5513705630

Comet physical (GM= km^3/s^2; RAD= km):
  GM= n.a.                RAD= n.a.
  M1=  13.4     M2=  16.6     k1=  10.    k2=  5.      PHCOF=  .030

Comet non-gravitational force model (AMRAT=m^2/kg;A1-A3=au/d^2;DT=days;R0=au):
  AMRAT=  0.                                      DT=  0.
  A1= 0.                  A2= 1.474775187671E-10  A3= 0.
Standard model:
  ALN=  .1112620426   NK=  4.6142   NM=  2.15     NN=  5.093    R0=  2.808

COMET comments 
1: soln ref.= JPL#K183/6, data arc: 2007-01-11 to 2019-04-06
2: k1=10., k2=5., phase coef.=0.03;
*******************************************************************************


*******************************************************************************
Ephemeris / MAIL_REQUEST Mon Mar  1 13:22:59 2021 Pasadena, USA  / Horizons
*******************************************************************************
Target body name: 185P/Petriew                    {source: JPL#K183/6}
Center body name: Sun (10)                        {source: DE431}
Center-site name: BODY CENTER
*******************************************************************************
Start time      : A.D. 1990-Jan-01 00:00:00.0000 TDB
Stop  time      : A.D. 2020-Dec-31 00:00:00.0000 TDB
Step-size       : 10080 minutes
*******************************************************************************
Center geodetic : 0.00000000,0.00000000,0.0000000 {E-lon(deg),Lat(deg),Alt(km)}
Center cylindric: 0.00000000,0.00000000,0.0000000 {E-lon(deg),Dxy(km),Dz(km)}
Center radii    : 696000.0 x 696000.0 x 696000.0 k{Equator, meridian, pole}    
Small perturbers: Yes                             {source: SB431-N16}
Output units    : AU-D
Output type     : GEOMETRIC cartesian states
Output format   : 6 (LT, range, and range-rate)
Reference frame : Ecliptic of J2000.0
*******************************************************************************
Initial IAU76/J2000 heliocentric ecliptic osculating elements (au, days, deg.):
 EPOCH=  2456473.5 ! 2013-Jun-30.0000000 (TDB)    RMSW= n.a.                  
  EC= .6993345995045035   QR= .9319757108506322   TP= 2456153.051370563       
  OM= 214.0912549894404   W= 181.9391939260816    IN= 14.0071028125114        
 Equivalent ICRF heliocentric equatorial cartesian coordinates (au, au/d):
  X=-3.340947091402550E+00  Y= 3.939893336756226E-01  Z=-3.852379451982866E-01
 VX=-6.692126650983109E-03 VY=-5.495679216157419E-03 VZ=-2.080834492442290E-03
Comet physical (GM= km^3/s^2; RAD= km):                                        
  GM= n.a.                RAD= n.a.                                           
  M1=  13.4     M2=  16.6     k1=  10.    k2=  5.      PHCOF=  .030           
Comet non-gravitational force model (AMRAT=m^2/kg;A1-A3=au/d^2;DT=days;R0=au): 
  AMRAT=  0.                                      DT=  0.                     
  A1= 0.                  A2= 1.474775187671E-10  A3= 0.                      
Standard model:                                                               
  ALN=  .1112620426   NK=  4.6142   NM=  2.15     NN=  5.093    R0=  2.808    
*******************************************************************************
           JDTDB,            Calendar Date (TDB),                     LT,                     RG,                     RR,
**************************************************************************************************************************
$$SOE
2453744.500000000, A.D. 2006-Jan-09 00:00:00.0000,  2.249936268161087E-02,  3.895643886912025E+00, -5.060462007351809E-03,
2453751.500000000, A.D. 2006-Jan-16 00:00:00.0000,  2.229313866793969E-02,  3.859937305816321E+00, -5.141580925559558E-03,
2453758.500000000, A.D. 2006-Jan-23 00:00:00.0000,  2.208361521203100E-02,  3.823659444006376E+00, -5.223689841044196E-03,
2453765.500000000, A.D. 2006-Jan-30 00:00:00.0000,  2.187075170707611E-02,  3.786803270631208E+00, -5.306817662209718E-03,
2453772.500000000, A.D. 2006-Feb-06 00:00:00.0000,  2.165450636776864E-02,  3.749361550789300E+00, -5.390993756099664E-03,
2453779.500000000, A.D. 2006-Feb-13 00:00:00.0000,  2.143483621454191E-02,  3.711326842799363E+00, -5.476247829292705E-03,
2453786.500000000, A.D. 2006-Feb-20 00:00:00.0000,  2.121169705589525E-02,  3.672691495140248E+00, -5.562610278422267E-03,
2453793.500000000, A.D. 2006-Feb-27 00:00:00.0000,  2.098504343499253E-02,  3.633447637204761E+00, -5.650113523920319E-03,
2453800.500000000, A.D. 2006-Mar-06 00:00:00.0000,  2.075482854567311E-02,  3.593587164757408E+00, -5.738791431175437E-03,
2453807.500000000, A.D. 2006-Mar-13 00:00:00.0000,  2.052100423506435E-02,  3.553101740386746E+00, -5.828676505227472E-03,
2453814.500000000, A.D. 2006-Mar-20 00:00:00.0000,  2.028352105915214E-02,  3.511982803127115E+00, -5.919800405881379E-03,
2453821.500000000, A.D. 2006-Mar-27 00:00:00.0000,  2.004232828887795E-02,  3.470221569514309E+00, -6.012195111840927E-03,
2453828.500000000, A.D. 2006-Apr-03 00:00:00.0000,  1.979737389575003E-02,  3.427809031094235E+00, -6.105892871817403E-03,
2453835.500000000, A.D. 2006-Apr-10 00:00:00.0000,  1.954860454818856E-02,  3.384735953790092E+00, -6.200925838833910E-03,
2453842.500000000, A.D. 2006-Apr-17 00:00:00.0000,  1.929596562280587E-02,  3.340992879855491E+00, -6.297325704219026E-03,
2453849.500000000, A.D. 2006-Apr-24 00:00:00.0000,  1.903940123079510E-02,  3.296570132443498E+00, -6.395123306149462E-03,
2453856.500000000, A.D. 2006-May-01 00:00:00.0000,  1.877885426171412E-02,  3.251457823187585E+00, -6.494348149999084E-03,
2453863.500000000, A.D. 2006-May-08 00:00:00.0000,  1.851426644940760E-02,  3.205645863615691E+00, -6.595027788109021E-03,
2453870.500000000, A.D. 2006-May-15 00:00:00.0000,  1.824557846474888E-02,  3.159123981207975E+00, -6.697187167308527E-03,
2453877.500000000, A.D. 2006-May-22 00:00:00.0000,  1.797273002452118E-02,  3.111881738249009E+00, -6.800848647479667E-03,
2453884.500000000, A.D. 2006-May-29 00:00:00.0000,  1.769565998346341E-02,  3.063908547765026E+00, -6.906032407766538E-03,
2453891.500000000, A.D. 2006-Jun-05 00:00:00.0000,  1.741430646768387E-02,  3.015193696623772E+00, -7.012753551586872E-03,
2453898.500000000, A.D. 2006-Jun-12 00:00:00.0000,  1.712860715607626E-02,  2.965726394260189E+00, -7.121018892041572E-03,
2453905.500000000, A.D. 2006-Jun-19 00:00:00.0000,  1.683849962675089E-02,  2.915495832659116E+00, -7.230826536919445E-03,
2453912.500000000, A.D. 2006-Jun-26 00:00:00.0000,  1.654392172911997E-02,  2.864491250779860E+00, -7.342164607212568E-03,
2453919.500000000, A.D. 2006-Jul-03 00:00:00.0000,  1.624481203663456E-02,  2.812702012945170E+00, -7.455008673530320E-03,
2453926.500000000, A.D. 2006-Jul-10 00:00:00.0000,  1.594111041767831E-02,  2.760117707688417E+00, -7.569318512531369E-03,
2453933.500000000, A.D. 2006-Jul-17 00:00:00.0000,  1.563275875089601E-02,  2.706728271608905E+00, -7.685034178243287E-03,
2453940.500000000, A.D. 2006-Jul-24 00:00:00.0000,  1.531970181664180E-02,  2.652524143721338E+00, -7.802071176610078E-03,
2453947.500000000, A.D. 2006-Jul-31 00:00:00.0000,  1.500188840625597E-02,  2.597496457521133E+00, -7.920314462852851E-03,
2453954.500000000, A.D. 2006-Aug-07 00:00:00.0000,  1.467927270333375E-02,  2.541637280143725E+00, -8.039610936960298E-03,
2453961.500000000, A.D. 2006-Aug-14 00:00:00.0000,  1.435181600158109E-02,  2.484939909802044E+00, -8.159760332938628E-03,
2453968.500000000, A.D. 2006-Aug-21 00:00:00.0000,  1.401948881532998E-02,  2.427399241210931E+00, -8.280504949548337E-03,
2453975.500000000, A.D. 2006-Aug-28 00:00:00.0000,  1.368227345448262E-02,  2.369012211424903E+00, -8.401516127510977E-03,
2453982.500000000, A.D. 2006-Sep-04 00:00:00.0000,  1.334016728711336E-02,  2.309778364740161E+00, -8.522373785135363E-03,
2453989.500000000, A.D. 2006-Sep-11 00:00:00.0000,  1.299318690534923E-02,  2.249700573994442E+00, -8.642542914846642E-03,
2453996.500000000, A.D. 2006-Sep-18 00:00:00.0000,  1.264137330677967E-02,  2.188785937700312E+00, -8.761345937446203E-03,
2454003.500000000, A.D. 2006-Sep-25 00:00:00.0000,  1.228479835911044E-02,  2.127046899365288E+00, -8.877926418259878E-03,
2454010.500000000, A.D. 2006-Oct-02 00:00:00.0000,  1.192357293916712E-02,  2.064502656716603E+00, -8.991202212764272E-03,
2454017.500000000, A.D. 2006-Oct-09 00:00:00.0000,  1.155785721995250E-02,  2.001180942849992E+00, -9.099805527564059E-03,
2454024.500000000, A.D. 2006-Oct-16 00:00:00.0000,  1.118787370680117E-02,  1.937120283369880E+00, -9.202006141761877E-03,
2454031.500000000, A.D. 2006-Oct-23 00:00:00.0000,  1.081392379871357E-02,  1.872372863895487E+00, -9.295612872168936E-03,
2454038.500000000, A.D. 2006-Oct-30 00:00:00.0000,  1.043640887579896E-02,  1.807008181238393E+00, -9.377847040052730E-03,
2454045.500000000, A.D. 2006-Nov-06 00:00:00.0000,  1.005585719566533E-02,  1.741117700368089E+00, -9.445180240022539E-03,
